OBJECT_NAME,OBJECT_ID,EPOCH,MEAN_MOTION,ECCENTRICITY,INCLINATION,RA_OF_ASC_NODE,ARG_OF_PERICENTER,MEAN_ANOMALY,EPHEMERIS_TYPE,CLASSIFICATION_TYPE,NORAD_CAT_ID,ELEMENT_SET_NO,REV_AT_EPOCH,BSTAR,MEAN_MOTION_DOT,MEAN_MOTION_DDOT
BEIDOU-2 IGSO-5 (C10),2011-073A,2026-06-24T15:46:07.226112,1.00272136,.01142233,47.6633,271.4526,222.0346,107.5350,0,U,37948,999,5320,0,-.196E-5,0
LUCH 5A (SDCM/PRN 140),2011-074B,2026-06-27T15:03:29.254752,1.00272476,.00027299,8.7797,73.6563,33.3636,201.5146,0,U,37951,999,5315,0,-.47E-6,0
BEIDOU-2 G5 (C05),2012-008A,2026-06-27T22:25:06.722112,1.00276237,.00085796,3.6006,69.6388,276.0420,325.3803,0,U,38091,999,5247,0,.64E-6,0
BEIDOU-2 M3 (C11),2012-018A,2026-06-25T18:43:13.183680,1.86229866,.0020315,55.7497,304.5848,273.3514,86.4060,0,U,38250,999,9610,0,-.106E-5,0
BEIDOU-2 M4 (C12),2012-018B,2026-06-27T07:45:24.926688,1.86229563,.00115054,55.6483,303.7460,274.2978,85.5638,0,U,38251,999,9613,0,-.96E-6,0
SES-5 (EGNOS/PRN 136),2012-036A,2026-06-27T22:15:38.750112,1.00267494,.00024623,0.0461,317.6144,147.4013,149.8958,0,U,38652,999,4456,0,.45E-6,0
BEIDOU-2 M6 (C14),2012-050B,2026-06-25T23:00:55.897920,1.86231117,.0013516,56.5518,62.6042,358.2268,1.8099,0,U,38775,999,9347,0,-.89E-6,0
GSAT-10 (GAGAN/PRN 128),2012-051B,2026-06-27T19:07:22.460736,1.00271898,.00081843,0.0578,257.9960,193.2541,194.5211,0,U,38779,999,5020,0,-.153E-5,0
GPS BIIF-3  (PRN 24),2012-053A,2026-06-27T06:54:00.942624,2.00567719,.01809025,53.5876,143.1856,65.9164,295.9270,0,U,38833,999,9964,0,.19E-6,0
GSAT0103 (GALILEO-FM3),2012-055A,2026-06-26T20:39:51.533568,1.70473558,.00046383,55.8122,101.2802,306.6783,53.2530,0,U,38857,999,8517,0,-.37E-6,0
BEIDOU-2 G6 (C02),2012-059A,2026-06-27T22:36:26.588160,1.00271195,.0009668,4.4487,73.4127,328.9155,296.8613,0,U,38953,999,5001,0,-.168E-5,0
LUCH 5B (SDCM/PRN 125),2012-061A,2026-06-27T22:41:41.165376,1.00272748,.00025861,10.5066,49.7758,135.6962,54.7470,0,U,38977,999,4971,0,-.135E-5,0
COSMOS 2485 (747),2013-019A,2026-06-27T05:36:33.082272,2.13103295,.00229095,65.4252,73.2671,232.8969,126.9354,0,U,39155,999,10249,0,-.52E-6,0
GPS BIIF-4  (PRN 27),2013-023A,2026-06-26T15:44:53.202912,2.00563559,.01414361,54.4965,268.5877,51.0497,310.2453,0,U,39166,999,9607,0,-.35E-6,0
IRNSS-1A,2013-034A,2026-06-27T18:31:01.056000,1.00278664,.00173842,35.7435,63.7190,184.1350,0.7758,0,U,39199,999,4747,0,.5E-6,0
GPS BIIF-5  (PRN 30),2014-008A,2026-06-27T15:43:18.055776,2.00560533,.00842131,53.6561,148.8928,231.4049,127.8072,0,U,39533,999,8989,0,.28E-6,0
ASTRA 5B (EGNOS/PRN 123),2014-011B,2026-06-27T21:10:18.014016,1.00273043,.00022133,0.0515,327.4090,114.1978,175.4265,0,U,39617,999,4477,0,.149E-5,0
COSMOS 2492 (754),2014-012A,2026-06-23T21:47:10.853664,2.13103141,.00102141,65.2933,313.7069,323.0851,36.8355,0,U,39620,999,9538,0,-.82E-6,0
IRNSS-1B,2014-017A,2026-06-27T18:29:58.956000,1.00270216,.00224041,28.9051,240.2208,189.0275,179.2252,0,U,39635,999,4490,0,.148E-5,0
LUCH 5V (SDCM/PRN 141),2014-023A,2026-06-27T23:09:11.520288,1.00271643,.00025239,5.1594,69.6415,50.8595,237.6236,0,U,39727,999,4446,0,-.262E-5,0
GPS BIIF-6  (PRN 06),2014-026A,2026-06-27T10:22:16.363776,2.00560388,.00381185,56.4930,331.1188,326.3102,33.4391,0,U,39741,999,8874,0,-.101E-5,0
COSMOS 2500 (755),2014-032A,2026-06-27T08:41:34.003968,2.13106005,.00077512,65.2259,313.3360,186.3038,173.6757,0,U,40001,999,9367,0,-.81E-6,0
GPS BIIF-7  (PRN 09),2014-045A,2026-06-26T00:40:32.827008,2.00559107,.0033686,55.3587,88.1127,118.2750,242.0678,0,U,40105,999,8625,0,-.68E-6,0
GSAT0201 (GALILEO 5),2014-050A,2026-06-26T00:58:35.923584,1.85520188,.1675889,48.8656,273.0732,179.7342,180.4221,0,U,40128,999,7848,0,-.7E-6,0
GSAT0202 (GALILEO 6),2014-050B,2026-06-27T08:58:48.626688,1.85520761,.1677252,48.8808,272.1040,180.5175,179.3440,0,U,40129,999,8067,0,-.53E-6,0
IRNSS-1C,2014-061A,2026-06-27T19:06:04.205664,1.00275061,.00221191,6.5438,88.7299,4.8698,191.7311,0,U,40269,999,4279,0,-.156E-5,0
GPS BIIF-8  (PRN 03),2014-068A,2026-06-27T21:23:54.391200,2.00577000,.00672649,56.9949,30.5424,70.9950,289.7934,0,U,40294,999,8542,0,-.74E-6,0
COSMOS 2501 (702K),2014-075A,2026-06-27T14:59:08.738016,2.13101435,.00227017,63.6163,190.0105,212.5832,147.3234,0,U,40315,999,9007,0,.96E-6,0
GPS BIIF-9  (PRN 26),2015-013A,2026-06-27T12:47:46.289760,2.00550864,.01097935,53.1673,203.7495,40.2080,320.6683,0,U,40534,999,8203,0,.84E-6,0
GSAT0203 (GALILEO 7),2015-017A,2026-06-26T14:21:18.819936,1.70476365,.00021306,56.7831,341.3391,269.4919,90.4779,0,U,40544,999,6936,0,-.96E-6,0
GSAT0204 (GALILEO 8),2015-017B,2026-06-27T10:34:21.908640,1.70475952,.0002216,56.7897,341.3348,238.8522,121.1192,0,U,40545,999,3242,0,-.94E-6,0
