BEIDOU-2 IGSO-5         
1 37948U 11073A   26175.65702808 -.00000196  00000+0  00000+0 0  9995
2 37948  47.6633 271.4526 0114223 222.0346 107.5350  1.00272136 53204
LUCH-5A                 
1 37951U 11074B   26178.62742193 -.00000047  00000+0  00000+0 0  9996
2 37951   8.7797  73.6563 0002729  33.3636 201.5146  1.00272476 53151
BEIDOU-2 G5             
1 38091U 12008A   26178.93410558  .00000064  00000+0  00000+0 0  9999
2 38091   3.6006  69.6388 0008579 276.0420 325.3803  1.00276237 52478
BEIDOU-2 M3             
1 38250U 12018A   26176.78001370 -.00000106  00000+0  00000+0 0  9994
2 38250  55.7497 304.5848 0020315 273.3514  86.4060  1.86229866 96103
BEIDOU-2 M4             
1 38251U 12018B   26178.32320517 -.00000096  00000+0  00000+0 0  9992
2 38251  55.6483 303.7460 0011505 274.2978  85.5638  1.86229563 96132
SES-5                   
1 38652U 12036A   26178.92753183  .00000045  00000+0  00000+0 0  9995
2 38652   0.0461 317.6144 0002462 147.4013 149.8958  1.00267494 44563
BEIDOU-2 M6             
1 38775U 12050B   26176.95898030 -.00000089  00000+0  00000+0 0  9998
2 38775  56.5518  62.6042 0013516 358.2268   1.8099  1.86231117 93472
GSAT-10                 
1 38779U 12051B   26178.79678774 -.00000153  00000+0  00000+0 0  9990
2 38779   0.0578 257.9960 0008184 193.2541 194.5211  1.00271898 50206
NAVSTAR 67 (USA 239)    
1 38833U 12053A   26178.28751091  .00000019  00000+0  00000+0 0  9991
2 38833  53.5876 143.1856 0180902  65.9164 295.9270  2.00567719 99649
GSAT0103 (GALILEO-FM3)  
1 38857U 12055A   26177.86101312 -.00000037  00000+0  00000+0 0  9998
2 38857  55.8122 101.2802 0004638 306.6783  53.2530  1.70473558 85173
BEIDOU-2 G6             
1 38953U 12059A   26178.94197440 -.00000168  00000+0  00000+0 0  9991
2 38953   4.4487  73.4127 0009668 328.9155 296.8613  1.00271195 50010
LUCH-5B                 
1 38977U 12061A   26178.94561534 -.00000135  00000+0  00000+0 0  9993
2 38977  10.5066  49.7758 0002586 135.6962  54.7470  1.00272748 49716
COSMOS 2485 [GLONASS-M] 
1 39155U 13019A   26178.23371623 -.00000052  00000+0  00000+0 0  9994
2 39155  65.4252  73.2671 0022909 232.8969 126.9354  2.13103295102498
NAVSTAR 68 (USA 242)    
1 39166U 13023A   26177.65617133 -.00000035  00000+0  00000+0 0  9996
2 39166  54.4965 268.5877 0141436  51.0497 310.2453  2.00563559 96073
IRNSS-1A                
1 39199U 13034A   26178.77154000  .00000050  00000+0  00000+0 0  9993
2 39199  35.7435  63.7190 0017384 184.1350   0.7758  1.00278664 47474
NAVSTAR 69 (USA 248)    
1 39533U 14008A   26178.65507009  .00000028  00000+0  00000+0 0  9990
2 39533  53.6561 148.8928 0084213 231.4049 127.8072  2.00560533 89897
ASTRA 5B                
1 39617U 14011B   26178.88215294  .00000149  00000+0  00000+0 0  9998
2 39617   0.0515 327.4090 0002213 114.1978 175.4265  1.00273043 44775
COSMOS 2492 [GLONASS-M] 
1 39620U 14012A   26174.90776451 -.00000082  00000+0  00000+0 0  9996
2 39620  65.2933 313.7069 0010214 323.0851  36.8355  2.13103141 95380
IRNSS-1B                
1 39635U 14017A   26178.77082125  .00000148  00000+0  00000+0 0  9996
2 39635  28.9051 240.2208 0022404 189.0275 179.2252  1.00270216 44909
LUCH-5V                 
1 39727U 14023A   26178.96471667 -.00000262  00000+0  00000+0 0  9997
2 39727   5.1594  69.6415 0002523  50.8595 237.6236  1.00271643 44460
NAVSTAR 70 (USA 251)    
1 39741U 14026A   26178.43213384 -.00000101  00000+0  00000+0 0  9990
2 39741  56.4930 331.1188 0038118 326.3102  33.4391  2.00560388 88748
COSMOS 2500 [GLONASS-M] 
1 40001U 14032A   26178.36219912 -.00000081  00000+0  00000+0 0  9990
2 40001  65.2259 313.3360 0007751 186.3038 173.6757  2.13106005 93673
NAVSTAR 71 (USA 256)    
1 40105U 14045A   26177.02815772 -.00000068  00000+0  00000+0 0  9992
2 40105  55.3587  88.1127 0033686 118.2750 242.0678  2.00559107 86251
GSAT0201 (GALILEO 5)    
1 40128U 14050A   26177.04069356 -.00000070  00000+0  00000+0 0  9997
2 40128  48.8656 273.0732 1675889 179.7342 180.4221  1.85520188 78488
GSAT0202 (GALILEO 6)    
1 40129U 14050B   26178.37417392 -.00000053  00000+0  00000+0 0  9993
2 40129  48.8808 272.1040 1677252 180.5175 179.3440  1.85520761 80671
IRNSS-1C                
1 40269U 14061A   26178.79588201 -.00000156  00000+0  00000+0 0  9998
2 40269   6.5438  88.7299 0022119   4.8698 191.7311  1.00275061 42799
NAVSTAR 72 (USA 258)    
1 40294U 14068A   26178.89160175 -.00000074  00000+0  00000+0 0  9999
2 40294  56.9949  30.5424 0067264  70.9950 289.7934  2.00577000 85428
COSMOS 2501 [GLONASS-K] 
1 40315U 14075A   26178.62440669  .00000096  00000+0  00000+0 0  9994
2 40315  63.6163 190.0105 0022701 212.5832 147.3234  2.13101435 90071
NAVSTAR 73 (USA 260)    
1 40534U 15013A   26178.53317465  .00000084  00000+0  00000+0 0  9994
2 40534  53.1673 203.7495 0109793  40.2080 320.6683  2.00550864 82037
GSAT0203 (GALILEO 7)    
1 40544U 15017A   26177.59813449 -.00000096  00000+0  00000+0 0  9991
2 40544  56.7831 341.3391 0002130 269.4919  90.4779  1.70476365 69368
GSAT0204 (GALILEO 8)    
1 40545U 15017B   26178.44053135 -.00000094  00000+0  00000+0 0  9993
2 40545  56.7897 341.3348 0002216 238.8522 121.1192  1.70475952 32427
